{
    "links": {
        "self": "http://www.neowsapp.com/rest/v1/neo/3768614?api_key=iIulBulltgU6a56xZRHN4H3l9WmuAYTsLGpBGhQ2"
    },
    "id": "3768614",
    "neo_reference_id": "3768614",
    "name": "(2017 CL1)",
    "designation": "2017 CL1",
    "nasa_jpl_url": "http://ssd.jpl.nasa.gov/sbdb.cgi?sstr=3768614",
    "absolute_magnitude_h": 22.4,
    "estimated_diameter": {
        "kilometers": {
            "estimated_diameter_min": 0.0880146521,
            "estimated_diameter_max": 0.1968067451
        },
        "meters": {
            "estimated_diameter_min": 88.0146520901,
            "estimated_diameter_max": 196.8067450894
        },
        "miles": {
            "estimated_diameter_min": 0.0546897524,
            "estimated_diameter_max": 0.122290004
        },
        "feet": {
            "estimated_diameter_min": 288.7619911632,
            "estimated_diameter_max": 645.6914415591
        }
    },
    "is_potentially_hazardous_asteroid": false,
    "close_approach_data": [
        {
            "close_approach_date": "2017-01-11",
            "close_approach_date_full": "2017-Jan-11 01:39",
            "epoch_date_close_approach": 1484098740000,
            "relative_velocity": {
                "kilometers_per_second": "17.5929250798",
                "kilometers_per_hour": "63334.5302871713",
                "miles_per_hour": "39353.6141109371"
            },
            "miss_distance": {
                "astronomical": "0.3045226167",
                "lunar": "118.4592978963",
                "kilometers": "45555934.825146429",
                "miles": "28307145.2805775602"
            },
            "orbiting_body": "Earth"
        }
    ],
    "orbital_data": {
        "orbit_id": "2",
        "orbit_determination_date": "2017-04-06 08:20:16",
        "first_observation_date": "2017-02-02",
        "last_observation_date": "2017-02-05",
        "data_arc_in_days": 3,
        "observations_used": 15,
        "orbit_uncertainty": "9",
        "minimum_orbit_intersection": ".108489",
        "jupiter_tisserand_invariant": "2.905",
        "epoch_osculation": "2457787.5",
        "eccentricity": ".7444948362846919",
        "semi_major_axis": "2.545839109507722",
        "inclination": "22.80421343741935",
        "ascending_node_longitude": "151.5251889706816",
        "orbital_period": "1483.695767210281",
        "perihelion_distance": ".6504750384676046",
        "perihelion_argument": "241.5348954406309",
        "aphelion_distance": "4.44120318054784",
        "perihelion_time": "2457713.466814934182",
        "mean_anomaly": "17.96321537925986",
        "mean_motion": ".242637343824799",
        "equinox": "J2000",
        "orbit_class": {
            "orbit_class_type": "APO",
            "orbit_class_description": "Near-Earth asteroid orbits which cross the Earth’s orbit similar to that of 1862 Apollo",
            "orbit_class_range": "a (semi-major axis) > 1.0 AU; q (perihelion) < 1.017 AU"
        }
    },
    "is_sentry_object": false
}